OBJECT_NAME,OBJECT_ID,EPOCH,MEAN_MOTION,ECCENTRICITY,INCLINATION,RA_OF_ASC_NODE,ARG_OF_PERICENTER,MEAN_ANOMALY,EPHEMERIS_TYPE,CLASSIFICATION_TYPE,NORAD_CAT_ID,ELEMENT_SET_NO,REV_AT_EPOCH,BSTAR,MEAN_MOTION_DOT,MEAN_MOTION_DDOT
HORUS 1,2023-025A,2026-06-07T11:56:55.022784,15.23501123,.0002074,97.3460,233.2959,128.6062,231.5361,0,U,55690,999,18257,.27996E-3,.6613E-4,0
HORUS 2,2023-032A,2026-06-07T11:12:30.521088,15.23324104,.0002106,97.3531,234.0632,113.7673,246.3785,0,U,55844,999,18000,.27196E-3,.6388E-4,0
GLOBAL-19,2023-041B,2026-06-06T18:32:56.695488,15.38119609,.00090186,42.0027,262.6048,291.1397,68.8479,0,U,55982,999,18032,.4278986E-3,.16213E-3,0
BRO-9,2023-054H,2026-06-07T12:10:17.283936,15.95169363,.0006576,97.2938,76.1958,136.2629,223.9168,0,U,56185,999,17754,.11609E-2,.45105E-2,.83825E-4
ION SCV-010,2023-054Q,2026-06-07T06:13:35.863104,15.26111786,.0011393,97.3790,47.8874,234.6911,125.3262,0,U,56192,999,17468,.20171E-3,.5139E-4,0
TELEOS-2,2023-057C,2026-06-06T23:00:08.347680,14.96396432,.0000236,9.9876,278.6597,268.4419,91.5768,0,U,56310,999,17126,-.20928E-3,-.1748E-4,0
SNIPE 4,2023-072B,2026-06-07T13:06:09.433728,15.41972966,.000534,97.5264,4.2480,16.5506,343.5914,0,U,56744,999,16862,.51064E-3,.217E-3,0
SNIPE 2,2023-072C,2026-06-07T13:14:37.620384,15.46377061,.000521,97.5257,7.2319,46.7623,313.4060,0,U,56745,999,16875,.56161E-3,.27731E-3,0
2023-072G,2023-072G,2026-06-07T12:15:17.866080,15.50025124,.000394,97.4921,5.9811,39.0993,321.0542,0,U,56749,999,16896,.51231E-3,.2871E-3,0
GEISAT PRECURSOR,2023-084C,2026-06-07T12:04:34.921344,15.34520192,.0005875,97.6213,299.1395,32.9019,327.2588,0,U,56934,999,16604,.22618E-3,.7483E-4,0
BLACKJACK ACES-3,2023-084U,2026-06-07T02:06:03.691872,15.18417341,.0003448,97.6201,293.2033,61.3772,298.7809,0,U,56950,999,16563,.28811E-3,.586E-4,0
BLACKJACK ACES-2,2023-084Z,2026-06-07T00:40:43.883616,15.18485992,.0001697,97.6199,293.2279,72.6341,287.5078,0,U,56955,999,16563,.36995E-3,.756E-4,0
BLACKJACK ACES-1,2023-084AA,2026-06-05T21:30:26.284320,15.18458699,.0001335,97.6191,291.8617,96.4000,263.7386,0,U,56956,999,11518,.43851E-3,.8969E-4,0
ION SCV-011,2023-084AB,2026-06-07T05:57:47.846016,15.28749482,.0008434,98.1385,344.6078,75.8642,284.3532,0,U,56957,999,16429,.21897E-3,.6037E-4,0
GHOST-3,2023-084AC,2026-06-07T03:24:50.461344,15.47555167,.0005752,97.6206,306.1792,336.3592,23.7393,0,U,56958,999,16646,.38867E-3,.19939E-3,0
TOMORROW-R2,2023-084AG,2026-06-07T04:29:11.858784,15.99962688,.0006609,97.5990,321.0083,248.1829,111.8745,0,U,56962,999,16745,.7271E-3,.367757E-2,.59379E-4
AFR-1,2023-084AJ,2026-06-07T11:28:25.901184,15.28473923,.0010854,97.6263,294.9370,21.2704,338.8985,0,U,56964,999,16574,.18632E-3,.5092E-4,0
METEOR-M2 3,2023-091A,2026-06-07T13:01:37.576992,14.24046034,.0003794,98.6085,213.7180,181.2452,178.8718,0,U,57166,999,15314,.17663E-4,-.3E-7,0
UMKA 1 (RS40S),2023-091G,2026-06-07T10:07:00.517728,15.20705982,.0013763,97.5052,217.1569,148.2624,211.9443,0,U,57172,999,16252,.29748E-3,.6487E-4,0
2023-091H,2023-091H,2026-06-07T11:51:43.466112,15.28425232,.0010981,97.5049,221.6092,142.5489,217.6518,0,U,57173,999,16282,.41442E-3,.11417E-3,0
2023-091J,2023-091J,2026-06-07T11:19:54.414048,15.13861467,.0013495,97.5058,211.7075,174.4854,185.6529,0,U,57174,999,16216,.22143E-3,.3946E-4,0
CUBEBEL 2 (EU11S),2023-091K,2026-06-07T10:23:19.536000,15.28917434,.0011009,97.5052,221.5644,144.3731,215.8246,0,U,57175,999,16281,.45039E-3,.12605E-3,0
SITRO-AIS 5 (KATYS),2023-091L,2026-06-07T10:50:39.464160,15.29231248,.0012641,97.5060,222.2602,133.5667,226.6625,0,U,57176,999,16285,.45531E-3,.12875E-3,0
ZORKIY-2M 1,2023-091M,2026-06-07T09:48:07.901856,15.20774535,.0014372,97.5092,217.4055,145.8560,214.3602,0,U,57177,999,16251,.32629E-3,.7138E-4,0
CUBESX-HSE 3 (RS42S),2023-091N,2026-06-07T10:27:47.783808,15.30968643,.0012108,97.5092,223.9016,124.7115,235.5268,0,U,57178,999,16293,.47169E-3,.14076E-3,0
MONITOR-3 (RS58S),2023-091Q,2026-06-07T10:32:18.486240,15.27644728,.0013005,97.5084,221.8151,130.9367,229.3000,0,U,57180,999,16280,.40776E-3,.10975E-3,0
MONITOR-4 (RS57S),2023-091S,2026-06-07T10:02:57.928128,15.27739335,.0012959,97.5077,221.7651,131.3220,228.9137,0,U,57182,999,16280,.38198E-3,.10305E-3,0
MONITOR-2 (RS39S),2023-091U,2026-06-07T10:20:04.336800,15.18820025,.0012308,97.5074,216.7771,141.1010,219.1112,0,U,57184,999,16247,.28393E-3,.5853E-4,0
SVYATOBOR 1 (RS60S),2023-091X,2026-06-07T11:44:14.537760,15.26449444,.0010843,97.5089,222.2536,123.5259,236.7017,0,U,57187,999,16283,.33645E-3,.8711E-4,0
HORS 1,2023-091Y,2026-06-07T09:49:58.881792,15.26549910,.0010302,97.5066,221.9374,123.3449,236.8777,0,U,57188,999,16282,.35607E-3,.925E-4,0
