HORUS 1                 
1 55690U 23025A   26158.49785906  .00006613  00000+0  27996-3 0  9998
2 55690  97.3460 233.2959 0002074 128.6062 231.5361 15.23501123182574
HORUS 2                 
1 55844U 23032A   26158.46701992  .00006388  00000+0  27196-3 0  9998
2 55844  97.3531 234.0632 0002106 113.7673 246.3785 15.23324104180002
GLOBAL-19               
1 55982U 23041B   26157.77287842  .00016213  00000+0  42790-3 0  9992
2 55982  42.0027 262.6048 0009018 291.1397  68.8479 15.38119609180323
BRO-9                   
1 56185U 23054H   26158.50714449  .00451050  83825-4  11609-2 0  9999
2 56185  97.2938  76.1958 0006576 136.2629 223.9168 15.95169363177547
ION SCV-010             
1 56192U 23054Q   26158.25944286  .00005139  00000+0  20171-3 0  9990
2 56192  97.3790  47.8874 0011393 234.6911 125.3262 15.26111786174686
TELEOS-2                
1 56310U 23057C   26157.95842995 -.00001748  00000+0 -20928-3 0  9999
2 56310   9.9876 278.6597 0000236 268.4419  91.5768 14.96396432171265
SNIPE 4                 
1 56744U 23072B   26158.54594252  .00021700  00000+0  51064-3 0  9996
2 56744  97.5264   4.2480 0005340  16.5506 343.5914 15.41972966168626
SNIPE 2                 
1 56745U 23072C   26158.55182431  .00027731  00000+0  56161-3 0  9993
2 56745  97.5257   7.2319 0005210  46.7623 313.4060 15.46377061168756
2023-072G               
1 56749U 23072G   26158.51062345  .00028710  00000+0  51231-3 0  9995
2 56749  97.4921   5.9811 0003940  39.0993 321.0542 15.50025124168960
GEISAT PRECURSOR        
1 56934U 23084C   26158.50318196  .00007483  00000+0  22618-3 0  9992
2 56934  97.6213 299.1395 0005875  32.9019 327.2588 15.34520192166048
BLACKJACK ACES-3        
1 56950U 23084U   26158.08754273  .00005860  00000+0  28811-3 0  9991
2 56950  97.6201 293.2033 0003448  61.3772 298.7809 15.18417341165638
BLACKJACK ACES-2        
1 56955U 23084Z   26158.02828569  .00007560  00000+0  36995-3 0  9991
2 56955  97.6199 293.2279 0001697  72.6341 287.5078 15.18485992165633
BLACKJACK ACES-1        
1 56956U 23084AA  26156.89613755  .00008969  00000+0  43851-3 0  9997
2 56956  97.6191 291.8617 0001335  96.4000 263.7386 15.18458699115188
ION SCV-011             
1 56957U 23084AB  26158.24847044  .00006037  00000+0  21897-3 0  9999
2 56957  98.1385 344.6078 0008434  75.8642 284.3532 15.28749482164290
GHOST-3                 
1 56958U 23084AC  26158.14225071  .00019939  00000+0  38867-3 0  9999
2 56958  97.6206 306.1792 0005752 336.3592  23.7393 15.47555167166469
TOMORROW-R2             
1 56962U 23084AG  26158.18694281  .00367757  59379-4  72710-3 0  9998
2 56962  97.5990 321.0083 0006609 248.1829 111.8745 15.99962688167454
AFR-1                   
1 56964U 23084AJ  26158.47807756  .00005092  00000+0  18632-3 0  9991
2 56964  97.6263 294.9370 0010854  21.2704 338.8985 15.28473923165744
METEOR-M2 3             
1 57166U 23091A   26158.54279603 -.00000003  00000+0  17663-4 0  9998
2 57166  98.6085 213.7180 0003794 181.2452 178.8718 14.24046034153143
UMKA 1 (RS40S)          
1 57172U 23091G   26158.42153377  .00006487  00000+0  29748-3 0  9998
2 57172  97.5052 217.1569 0013763 148.2624 211.9443 15.20705982162529
2023-091H               
1 57173U 23091H   26158.49425308  .00011417  00000+0  41442-3 0  9996
2 57173  97.5049 221.6092 0010981 142.5489 217.6518 15.28425232162826
2023-091J               
1 57174U 23091J   26158.47215757  .00003946  00000+0  22143-3 0  9995
2 57174  97.5058 211.7075 0013495 174.4854 185.6529 15.13861467162162
CUBEBEL 2 (EU11S)       
1 57175U 23091K   26158.43286500  .00012605  00000+0  45039-3 0  9997
2 57175  97.5052 221.5644 0011009 144.3731 215.8246 15.28917434162813
SITRO-AIS 5 (KATYS)     
1 57176U 23091L   26158.45184565  .00012875  00000+0  45531-3 0  9994
2 57176  97.5060 222.2602 0012641 133.5667 226.6625 15.29231248162854
ZORKIY-2M 1             
1 57177U 23091M   26158.40842479  .00007138  00000+0  32629-3 0  9995
2 57177  97.5092 217.4055 0014372 145.8560 214.3602 15.20774535162513
CUBESX-HSE 3 (RS42S)    
1 57178U 23091N   26158.43596972  .00014076  00000+0  47169-3 0  9997
2 57178  97.5092 223.9016 0012108 124.7115 235.5268 15.30968643162935
MONITOR-3 (RS58S)       
1 57180U 23091Q   26158.43910285  .00010975  00000+0  40776-3 0  9998
2 57180  97.5084 221.8151 0013005 130.9367 229.3000 15.27644728162803
MONITOR-4 (RS57S)       
1 57182U 23091S   26158.41872602  .00010305  00000+0  38198-3 0  9990
2 57182  97.5077 221.7651 0012959 131.3220 228.9137 15.27739335162806
MONITOR-2 (RS39S)       
1 57184U 23091U   26158.43060575  .00005853  00000+0  28393-3 0  9990
2 57184  97.5074 216.7771 0012308 141.1010 219.1112 15.18820025162471
SVYATOBOR 1 (RS60S)     
1 57187U 23091X   26158.48905715  .00008711  00000+0  33645-3 0  9994
2 57187  97.5089 222.2536 0010843 123.5259 236.7017 15.26449444162832
HORS 1                  
1 57188U 23091Y   26158.40970928  .00009250  00000+0  35607-3 0  9994
2 57188  97.5066 221.9374 0010302 123.3449 236.8777 15.26549910162825
